CCSDS_OMM_VERS = 2.0
CREATION_DATE  = 
ORIGINATOR     = 

OBJECT_NAME    = ORBVIEW 2 (SEASTAR)
OBJECT_ID      = 1997-037A
CENTER_NAME    = EARTH
REF_FRAME      = TEME
TIME_SYSTEM    = UTC
MEAN_ELEMENT_THEORY = SGP/SGP4

EPOCH          = 2025-11-20T16:17:41.419968
MEAN_MOTION    = 14.35393319
ECCENTRICITY   = .0002722
INCLINATION    = 98.8451
RA_OF_ASC_NODE = 121.1996
ARG_OF_PERICENTER = 42.2335
MEAN_ANOMALY   = 317.9058

EPHEMERIS_TYPE = 0
CLASSIFICATION_TYPE = U
NORAD_CAT_ID   = 24883
ELEMENT_SET_NO = 999
REV_AT_EPOCH   = 49283
BSTAR          = .13662E-3
MEAN_MOTION_DOT = .346E-5
MEAN_MOTION_DDOT = 0

CCSDS_OMM_VERS = 2.0
CREATION_DATE  = 
ORIGINATOR     = 

OBJECT_NAME    = SL-16 R/B
OBJECT_ID      = 1998-043G
CENTER_NAME    = EARTH
REF_FRAME      = TEME
TIME_SYSTEM    = UTC
MEAN_ELEMENT_THEORY = SGP/SGP4

EPOCH          = 2025-11-20T18:23:58.094304
MEAN_MOTION    = 14.26017767
ECCENTRICITY   = .0009421
INCLINATION    = 98.8089
RA_OF_ASC_NODE = 272.4658
ARG_OF_PERICENTER = 336.3744
MEAN_ANOMALY   = 23.7002

EPHEMERIS_TYPE = 0
CLASSIFICATION_TYPE = U
NORAD_CAT_ID   = 25400
ELEMENT_SET_NO = 999
REV_AT_EPOCH   = 42346
BSTAR          = .54581E-4
MEAN_MOTION_DOT = .85E-6
MEAN_MOTION_DDOT = 0

CCSDS_OMM_VERS = 2.0
CREATION_DATE  = 
ORIGINATOR     = 

OBJECT_NAME    = SL-16 R/B
OBJECT_ID      = 1998-045B
CENTER_NAME    = EARTH
REF_FRAME      = TEME
TIME_SYSTEM    = UTC
MEAN_ELEMENT_THEORY = SGP/SGP4

EPOCH          = 2025-11-20T12:21:36.531360
MEAN_MOTION    = 14.16168640
ECCENTRICITY   = .0008278
INCLINATION    = 71.0123
RA_OF_ASC_NODE = 51.1632
ARG_OF_PERICENTER = 208.0432
MEAN_ANOMALY   = 152.0246

EPHEMERIS_TYPE = 0
CLASSIFICATION_TYPE = U
NORAD_CAT_ID   = 25407
ELEMENT_SET_NO = 999
REV_AT_EPOCH   = 41164
BSTAR          = .20935E-4
MEAN_MOTION_DOT = -.6E-7
MEAN_MOTION_DDOT = 0

CCSDS_OMM_VERS = 2.0
CREATION_DATE  = 
ORIGINATOR     = 

OBJECT_NAME    = ISS (ZARYA)
OBJECT_ID      = 1998-067A
CENTER_NAME    = EARTH
REF_FRAME      = TEME
TIME_SYSTEM    = UTC
MEAN_ELEMENT_THEORY = SGP/SGP4

EPOCH          = 2025-11-20T13:04:27.083424
MEAN_MOTION    = 15.48924225
ECCENTRICITY   = .0003988
INCLINATION    = 51.6324
RA_OF_ASC_NODE = 252.3307
ARG_OF_PERICENTER = 148.8281
MEAN_ANOMALY   = 211.2944

EPHEMERIS_TYPE = 0
CLASSIFICATION_TYPE = U
NORAD_CAT_ID   = 25544
ELEMENT_SET_NO = 999
REV_AT_EPOCH   = 53941
BSTAR          = .2563E-3
MEAN_MOTION_DOT = .13659E-3
MEAN_MOTION_DDOT = 0

CCSDS_OMM_VERS = 2.0
CREATION_DATE  = 
ORIGINATOR     = 

OBJECT_NAME    = CZ-4B R/B
OBJECT_ID      = 1999-025C
CENTER_NAME    = EARTH
REF_FRAME      = TEME
TIME_SYSTEM    = UTC
MEAN_ELEMENT_THEORY = SGP/SGP4

EPOCH          = 2025-11-20T14:45:11.475360
MEAN_MOTION    = 14.18235763
ECCENTRICITY   = .0036127
INCLINATION    = 98.6801
RA_OF_ASC_NODE = 6.3862
ARG_OF_PERICENTER = 299.4308
MEAN_ANOMALY   = 214.1901

EPHEMERIS_TYPE = 0
CLASSIFICATION_TYPE = U
NORAD_CAT_ID   = 25732
ELEMENT_SET_NO = 999
REV_AT_EPOCH   = 37270
BSTAR          = .75265E-4
MEAN_MOTION_DOT = .112E-5
MEAN_MOTION_DDOT = 0

CCSDS_OMM_VERS = 2.0
CREATION_DATE  = 
ORIGINATOR     = 

OBJECT_NAME    = OKEAN-O
OBJECT_ID      = 1999-039A
CENTER_NAME    = EARTH
REF_FRAME      = TEME
TIME_SYSTEM    = UTC
MEAN_ELEMENT_THEORY = SGP/SGP4

EPOCH          = 2025-11-20T09:54:52.388640
MEAN_MOTION    = 14.80106936
ECCENTRICITY   = .0001183
INCLINATION    = 97.9635
RA_OF_ASC_NODE = 20.3050
ARG_OF_PERICENTER = 66.7097
MEAN_ANOMALY   = 293.4239

EPHEMERIS_TYPE = 0
CLASSIFICATION_TYPE = U
NORAD_CAT_ID   = 25860
ELEMENT_SET_NO = 999
REV_AT_EPOCH   = 41822
BSTAR          = .11442E-3
MEAN_MOTION_DOT = .815E-5
MEAN_MOTION_DDOT = 0

CCSDS_OMM_VERS = 2.0
CREATION_DATE  = 
ORIGINATOR     = 

OBJECT_NAME    = SL-16 R/B
OBJECT_ID      = 1999-039B
CENTER_NAME    = EARTH
REF_FRAME      = TEME
TIME_SYSTEM    = UTC
MEAN_ELEMENT_THEORY = SGP/SGP4

EPOCH          = 2025-11-20T10:18:46.289088
MEAN_MOTION    = 14.81539941
ECCENTRICITY   = .0013562
INCLINATION    = 98.0159
RA_OF_ASC_NODE = 18.5763
ARG_OF_PERICENTER = 250.2058
MEAN_ANOMALY   = 109.7692

EPHEMERIS_TYPE = 0
CLASSIFICATION_TYPE = U
NORAD_CAT_ID   = 25861
ELEMENT_SET_NO = 999
REV_AT_EPOCH   = 42068
BSTAR          = .9467E-4
MEAN_MOTION_DOT = .689E-5
MEAN_MOTION_DDOT = 0

CCSDS_OMM_VERS = 2.0
CREATION_DATE  = 
ORIGINATOR     = 

OBJECT_NAME    = DELTA 2 R/B
OBJECT_ID      = 1999-041E
CENTER_NAME    = EARTH
REF_FRAME      = TEME
TIME_SYSTEM    = UTC
MEAN_ELEMENT_THEORY = SGP/SGP4

EPOCH          = 2025-11-20T14:52:00.922368
MEAN_MOTION    = 14.11322339
ECCENTRICITY   = .0504893
INCLINATION    = 51.7633
RA_OF_ASC_NODE = 16.7416
ARG_OF_PERICENTER = 26.5832
MEAN_ANOMALY   = 336.0068

EPHEMERIS_TYPE = 0
CLASSIFICATION_TYPE = U
NORAD_CAT_ID   = 25876
ELEMENT_SET_NO = 999
REV_AT_EPOCH   = 34762
BSTAR          = .23433E-3
MEAN_MOTION_DOT = .121E-4
MEAN_MOTION_DDOT = 0

CCSDS_OMM_VERS = 2.0
CREATION_DATE  = 
ORIGINATOR     = 

OBJECT_NAME    = HELIOS 1B
OBJECT_ID      = 1999-064A
CENTER_NAME    = EARTH
REF_FRAME      = TEME
TIME_SYSTEM    = UTC
MEAN_ELEMENT_THEORY = SGP/SGP4

EPOCH          = 2025-11-20T11:11:24.175392
MEAN_MOTION    = 14.87152683
ECCENTRICITY   = .000252
INCLINATION    = 98.1756
RA_OF_ASC_NODE = 218.4732
ARG_OF_PERICENTER = 73.3477
MEAN_ANOMALY   = 286.8015

EPHEMERIS_TYPE = 0
CLASSIFICATION_TYPE = U
NORAD_CAT_ID   = 25977
ELEMENT_SET_NO = 999
REV_AT_EPOCH   = 66902
BSTAR          = .24743E-3
MEAN_MOTION_DOT = .2166E-4
MEAN_MOTION_DDOT = 0

CCSDS_OMM_VERS = 2.0
CREATION_DATE  = 
ORIGINATOR     = 

OBJECT_NAME    = TERRA
OBJECT_ID      = 1999-068A
CENTER_NAME    = EARTH
REF_FRAME      = TEME
TIME_SYSTEM    = UTC
MEAN_ELEMENT_THEORY = SGP/SGP4

EPOCH          = 2025-11-20T18:11:11.810112
MEAN_MOTION    = 14.60916200
ECCENTRICITY   = .0002882
INCLINATION    = 97.9780
RA_OF_ASC_NODE = 17.2449
ARG_OF_PERICENTER = 143.1936
MEAN_ANOMALY   = 326.1023

EPHEMERIS_TYPE = 0
CLASSIFICATION_TYPE = U
NORAD_CAT_ID   = 25994
ELEMENT_SET_NO = 999
REV_AT_EPOCH   = 37917
BSTAR          = .12434E-3
MEAN_MOTION_DOT = .564E-5
MEAN_MOTION_DDOT = 0

CCSDS_OMM_VERS = 2.0
CREATION_DATE  = 
ORIGINATOR     = 

OBJECT_NAME    = SL-16 R/B
OBJECT_ID      = 2000-006B
CENTER_NAME    = EARTH
REF_FRAME      = TEME
TIME_SYSTEM    = UTC
MEAN_ELEMENT_THEORY = SGP/SGP4

EPOCH          = 2025-11-20T10:21:18.855936
MEAN_MOTION    = 14.15801227
ECCENTRICITY   = .0017302
INCLINATION    = 71.0019
RA_OF_ASC_NODE = 327.5647
ARG_OF_PERICENTER = 339.8996
MEAN_ANOMALY   = 20.1444

EPHEMERIS_TYPE = 0
CLASSIFICATION_TYPE = U
NORAD_CAT_ID   = 26070
ELEMENT_SET_NO = 999
REV_AT_EPOCH   = 33309
BSTAR          = -.36755E-4
MEAN_MOTION_DOT = -.12E-5
MEAN_MOTION_DDOT = 0

CCSDS_OMM_VERS = 2.0
CREATION_DATE  = 
ORIGINATOR     = 

OBJECT_NAME    = TITAN 4B R/B
OBJECT_ID      = 2000-047B
CENTER_NAME    = EARTH
REF_FRAME      = TEME
TIME_SYSTEM    = UTC
MEAN_ELEMENT_THEORY = SGP/SGP4

EPOCH          = 2025-11-20T15:58:50.661696
MEAN_MOTION    = 15.08556568
ECCENTRICITY   = .0040865
INCLINATION    = 67.9902
RA_OF_ASC_NODE = 346.8400
ARG_OF_PERICENTER = 170.6066
MEAN_ANOMALY   = 189.5856

EPHEMERIS_TYPE = 0
CLASSIFICATION_TYPE = U
NORAD_CAT_ID   = 26474
ELEMENT_SET_NO = 999
REV_AT_EPOCH   = 37646
BSTAR          = .22326E-3
MEAN_MOTION_DOT = .3427E-4
MEAN_MOTION_DDOT = 0

